{
    "links": {
        "self": "http://www.neowsapp.com/rest/v1/neo/3653652?api_key=iIulBulltgU6a56xZRHN4H3l9WmuAYTsLGpBGhQ2"
    },
    "id": "3653652",
    "neo_reference_id": "3653652",
    "name": "(2013 VZ11)",
    "designation": "2013 VZ11",
    "nasa_jpl_url": "http://ssd.jpl.nasa.gov/sbdb.cgi?sstr=3653652",
    "absolute_magnitude_h": 20.6,
    "estimated_diameter": {
        "kilometers": {
            "estimated_diameter_min": 0.2016299194,
            "estimated_diameter_max": 0.4508582062
        },
        "meters": {
            "estimated_diameter_min": 201.6299194428,
            "estimated_diameter_max": 450.8582061718
        },
        "miles": {
            "estimated_diameter_min": 0.1252869847,
            "estimated_diameter_max": 0.2801502144
        },
        "feet": {
            "estimated_diameter_min": 661.5155049046,
            "estimated_diameter_max": 1479.1936371367
        }
    },
    "is_potentially_hazardous_asteroid": false,
    "close_approach_data": [
        {
            "close_approach_date": "2013-10-20",
            "close_approach_date_full": "2013-Oct-20 01:25",
            "epoch_date_close_approach": 1382232300000,
            "relative_velocity": {
                "kilometers_per_second": "18.6395509887",
                "kilometers_per_hour": "67102.3835592779",
                "miles_per_hour": "41694.8116065969"
            },
            "miss_distance": {
                "astronomical": "0.1846075837",
                "lunar": "71.8123500593",
                "kilometers": "27616901.307366719",
                "miles": "17160346.7365459622"
            },
            "orbiting_body": "Earth"
        }
    ],
    "orbital_data": {
        "orbit_id": "8",
        "orbit_determination_date": "2017-04-06 08:43:44",
        "first_observation_date": "2013-11-07",
        "last_observation_date": "2013-11-25",
        "data_arc_in_days": 18,
        "observations_used": 77,
        "orbit_uncertainty": "7",
        "minimum_orbit_intersection": ".154093",
        "jupiter_tisserand_invariant": "2.966",
        "epoch_osculation": "2459000.5",
        "eccentricity": ".625352585512718",
        "semi_major_axis": "2.686645623235312",
        "inclination": "23.38691158733386",
        "ascending_node_longitude": "34.43123103631406",
        "orbital_period": "1608.473851273832",
        "perihelion_distance": "1.006544836388682",
        "perihelion_argument": "304.7416580489199",
        "aphelion_distance": "4.366746410081942",
        "perihelion_time": "2459773.472064358501",
        "mean_anomaly": "186.9975337499678",
        "mean_motion": ".2238146425040717",
        "equinox": "J2000",
        "orbit_class": {
            "orbit_class_type": "APO",
            "orbit_class_description": "Near-Earth asteroid orbits which cross the Earth’s orbit similar to that of 1862 Apollo",
            "orbit_class_range": "a (semi-major axis) > 1.0 AU; q (perihelion) < 1.017 AU"
        }
    },
    "is_sentry_object": false
}